[{"OBJECT_NAME":"GSAT0213 (GALILEO 17)","OBJECT_ID":"2016-069C","EPOCH":"2026-03-05T17:27:54.626112","MEAN_MOTION":1.70474927,"ECCENTRICITY":0.00052959,"INCLINATION":55.4302,"RA_OF_ASC_NODE":103.9512,"ARG_OF_PERICENTER":293.0089,"MEAN_ANOMALY":67.0145,"EPHEMERIS_TYPE":0,"CLASSIFICATION_TYPE":"U","NORAD_CAT_ID":41861,"ELEMENT_SET_NO":999,"REV_AT_EPOCH":5775,"BSTAR":0,"MEAN_MOTION_DOT":8.0e-8,"MEAN_MOTION_DDOT":0},{"OBJECT_NAME":"GSAT0214 (GALILEO 18)","OBJECT_ID":"2016-069D","EPOCH":"2026-03-06T11:02:54.170016","MEAN_MOTION":1.70474815,"ECCENTRICITY":0.0004341,"INCLINATION":55.4293,"RA_OF_ASC_NODE":103.9236,"ARG_OF_PERICENTER":297.3479,"MEAN_ANOMALY":62.684,"EPHEMERIS_TYPE":0,"CLASSIFICATION_TYPE":"U","NORAD_CAT_ID":41862,"ELEMENT_SET_NO":999,"REV_AT_EPOCH":5789,"BSTAR":0,"MEAN_MOTION_DOT":6.0e-8,"MEAN_MOTION_DDOT":0},{"OBJECT_NAME":"SES-15 (WAAS/PRN 133)","OBJECT_ID":"2017-026A","EPOCH":"2026-03-07T12:33:38.603808","MEAN_MOTION":1.00274261,"ECCENTRICITY":0.00010161,"INCLINATION":0.0427,"RA_OF_ASC_NODE":318.1999,"ARG_OF_PERICENTER":33.8962,"MEAN_ANOMALY":232.3748,"EPHEMERIS_TYPE":0,"CLASSIFICATION_TYPE":"U","NORAD_CAT_ID":42709,"ELEMENT_SET_NO":999,"REV_AT_EPOCH":641,"BSTAR":0,"MEAN_MOTION_DOT":5.8e-7,"MEAN_MOTION_DDOT":0},{"OBJECT_NAME":"QZS-2 (QZSS/PRN 194)","OBJECT_ID":"2017-028A","EPOCH":"2026-03-06T21:25:38.719200","MEAN_MOTION":1.00261347,"ECCENTRICITY":0.0745331,"INCLINATION":39.5865,"RA_OF_ASC_NODE":244.6431,"ARG_OF_PERICENTER":270.3514,"MEAN_ANOMALY":112.5324,"EPHEMERIS_TYPE":0,"CLASSIFICATION_TYPE":"U","NORAD_CAT_ID":42738,"ELEMENT_SET_NO":999,"REV_AT_EPOCH":660,"BSTAR":0,"MEAN_MOTION_DOT":-1.62e-6,"MEAN_MOTION_DDOT":0},{"OBJECT_NAME":"QZS-3 (QZSS/PRN 199)","OBJECT_ID":"2017-048A","EPOCH":"2026-03-07T14:27:52.327008","MEAN_MOTION":1.00274879,"ECCENTRICITY":0.00023006,"INCLINATION":0.0667,"RA_OF_ASC_NODE":211.2342,"ARG_OF_PERICENTER":151.1691,"MEAN_ANOMALY":146.8863,"EPHEMERIS_TYPE":0,"CLASSIFICATION_TYPE":"U","NORAD_CAT_ID":42917,"ELEMENT_SET_NO":999,"REV_AT_EPOCH":3124,"BSTAR":0,"MEAN_MOTION_DOT":-3.49e-6,"MEAN_MOTION_DDOT":0},{"OBJECT_NAME":"COSMOS 2522 (752)","OBJECT_ID":"2017-055A","EPOCH":"2026-03-05T21:15:41.480928","MEAN_MOTION":2.13101691,"ECCENTRICITY":0.00073107,"INCLINATION":64.0788,"RA_OF_ASC_NODE":195.3973,"ARG_OF_PERICENTER":227.5424,"MEAN_ANOMALY":132.3669,"EPHEMERIS_TYPE":0,"CLASSIFICATION_TYPE":"U","NORAD_CAT_ID":42939,"ELEMENT_SET_NO":999,"REV_AT_EPOCH":6577,"BSTAR":0,"MEAN_MOTION_DOT":1.9e-7,"MEAN_MOTION_DDOT":0},{"OBJECT_NAME":"QZS-4 (QZSS/PRN 195)","OBJECT_ID":"2017-062A","EPOCH":"2026-03-05T17:47:25.010880","MEAN_MOTION":1.00280691,"ECCENTRICITY":0.07484947,"INCLINATION":40.1722,"RA_OF_ASC_NODE":344.8064,"ARG_OF_PERICENTER":269.915,"MEAN_ANOMALY":316.0784,"EPHEMERIS_TYPE":0,"CLASSIFICATION_TYPE":"U","NORAD_CAT_ID":42965,"ELEMENT_SET_NO":999,"REV_AT_EPOCH":3076,"BSTAR":0,"MEAN_MOTION_DOT":-3.41e-6,"MEAN_MOTION_DDOT":0},{"OBJECT_NAME":"BEIDOU-3 M1 (C19)","OBJECT_ID":"2017-069A","EPOCH":"2026-03-04T23:07:42.560256","MEAN_MOTION":1.8623107,"ECCENTRICITY":0.0012381,"INCLINATION":56.6017,"RA_OF_ASC_NODE":66.5157,"ARG_OF_PERICENTER":309.6653,"MEAN_ANOMALY":50.2473,"EPHEMERIS_TYPE":0,"CLASSIFICATION_TYPE":"U","NORAD_CAT_ID":43001,"ELEMENT_SET_NO":999,"REV_AT_EPOCH":5666,"BSTAR":0,"MEAN_MOTION_DOT":-2.9e-7,"MEAN_MOTION_DDOT":0},{"OBJECT_NAME":"BEIDOU-3 M2 (C20)","OBJECT_ID":"2017-069B","EPOCH":"2026-03-07T14:05:12.862752","MEAN_MOTION":1.86230719,"ECCENTRICITY":0.00097923,"INCLINATION":56.6029,"RA_OF_ASC_NODE":66.4651,"ARG_OF_PERICENTER":329.2108,"MEAN_ANOMALY":30.746,"EPHEMERIS_TYPE":0,"CLASSIFICATION_TYPE":"U","NORAD_CAT_ID":43002,"ELEMENT_SET_NO":999,"REV_AT_EPOCH":5670,"BSTAR":0,"MEAN_MOTION_DOT":-3.4e-7,"MEAN_MOTION_DDOT":0},{"OBJECT_NAME":"GSAT0215 (GALILEO 19)","OBJECT_ID":"2017-079A","EPOCH":"2026-03-03T10:20:26.274624","MEAN_MOTION":1.70474475,"ECCENTRICITY":6.318e-5,"INCLINATION":55.108,"RA_OF_ASC_NODE":224.4135,"ARG_OF_PERICENTER":13.1955,"MEAN_ANOMALY":346.7446,"EPHEMERIS_TYPE":0,"CLASSIFICATION_TYPE":"U","NORAD_CAT_ID":43055,"ELEMENT_SET_NO":999,"REV_AT_EPOCH":5118,"BSTAR":0,"MEAN_MOTION_DOT":1.0e-7,"MEAN_MOTION_DDOT":0},{"OBJECT_NAME":"GSAT0216 (GALILEO 20)","OBJECT_ID":"2017-079B","EPOCH":"2026-03-06T15:43:11.296704","MEAN_MOTION":1.70474699,"ECCENTRICITY":0.00017073,"INCLINATION":55.1075,"RA_OF_ASC_NODE":224.325,"ARG_OF_PERICENTER":318.8981,"MEAN_ANOMALY":41.0306,"EPHEMERIS_TYPE":0,"CLASSIFICATION_TYPE":"U","NORAD_CAT_ID":43056,"ELEMENT_SET_NO":999,"REV_AT_EPOCH":5125,"BSTAR":0,"MEAN_MOTION_DOT":2.2e-7,"MEAN_MOTION_DDOT":0},{"OBJECT_NAME":"GSAT0217 (GALILEO 21)","OBJECT_ID":"2017-079C","EPOCH":"2026-03-06T06:56:23.730720","MEAN_MOTION":1.70474591,"ECCENTRICITY":0.00020747,"INCLINATION":55.1073,"RA_OF_ASC_NODE":224.3328,"ARG_OF_PERICENTER":355.7864,"MEAN_ANOMALY":4.152,"EPHEMERIS_TYPE":0,"CLASSIFICATION_TYPE":"U","NORAD_CAT_ID":43057,"ELEMENT_SET_NO":999,"REV_AT_EPOCH":5123,"BSTAR":0,"MEAN_MOTION_DOT":2.0e-7,"MEAN_MOTION_DDOT":0},{"OBJECT_NAME":"GSAT0218 (GALILEO 22)","OBJECT_ID":"2017-079D","EPOCH":"2026-03-05T22:08:34.882080","MEAN_MOTION":1.70474575,"ECCENTRICITY":0.00019217,"INCLINATION":55.1041,"RA_OF_ASC_NODE":224.3407,"ARG_OF_PERICENTER":303.222,"MEAN_ANOMALY":56.6985,"EPHEMERIS_TYPE":0,"CLASSIFICATION_TYPE":"U","NORAD_CAT_ID":43058,"ELEMENT_SET_NO":999,"REV_AT_EPOCH":5125,"BSTAR":0,"MEAN_MOTION_DOT":1.8e-7,"MEAN_MOTION_DDOT":0},{"OBJECT_NAME":"BEIDOU-3 M7 (C27)","OBJECT_ID":"2018-003A","EPOCH":"2026-03-06T06:07:15.298752","MEAN_MOTION":1.86232356,"ECCENTRICITY":0.00047444,"INCLINATION":54.4191,"RA_OF_ASC_NODE":305.9051,"ARG_OF_PERICENTER":71.1404,"MEAN_ANOMALY":288.9649,"EPHEMERIS_TYPE":0,"CLASSIFICATION_TYPE":"U","NORAD_CAT_ID":43107,"ELEMENT_SET_NO":999,"REV_AT_EPOCH":5543,"BSTAR":0,"MEAN_MOTION_DOT":-6.9e-7,"MEAN_MOTION_DDOT":0},{"OBJECT_NAME":"BEIDOU-3 M8 (C28)","OBJECT_ID":"2018-003B","EPOCH":"2026-03-06T17:42:05.571936","MEAN_MOTION":1.86230889,"ECCENTRICITY":0.0002951,"INCLINATION":54.4113,"RA_OF_ASC_NODE":305.8708,"ARG_OF_PERICENTER":295.0434,"MEAN_ANOMALY":64.9788,"EPHEMERIS_TYPE":0,"CLASSIFICATION_TYPE":"U","NORAD_CAT_ID":43108,"ELEMENT_SET_NO":999,"REV_AT_EPOCH":5545,"BSTAR":0,"MEAN_MOTION_DOT":-6.9e-7,"MEAN_MOTION_DDOT":0},{"OBJECT_NAME":"BEIDOU-3 M4 (C22)","OBJECT_ID":"2018-018A","EPOCH":"2026-03-06T15:25:38.337312","MEAN_MOTION":1.86231211,"ECCENTRICITY":0.00068689,"INCLINATION":56.5621,"RA_OF_ASC_NODE":66.5276,"ARG_OF_PERICENTER":350.4806,"MEAN_ANOMALY":9.5225,"EPHEMERIS_TYPE":0,"CLASSIFICATION_TYPE":"U","NORAD_CAT_ID":43207,"ELEMENT_SET_NO":999,"REV_AT_EPOCH":5483,"BSTAR":0,"MEAN_MOTION_DOT":-3.5e-7,"MEAN_MOTION_DDOT":0},{"OBJECT_NAME":"BEIDOU-3 M3 (C21)","OBJECT_ID":"2018-018B","EPOCH":"2026-03-06T04:08:06.779616","MEAN_MOTION":1.86231186,"ECCENTRICITY":0.00099399,"INCLINATION":56.5611,"RA_OF_ASC_NODE":66.5473,"ARG_OF_PERICENTER":319.6399,"MEAN_ANOMALY":40.3037,"EPHEMERIS_TYPE":0,"CLASSIFICATION_TYPE":"U","NORAD_CAT_ID":43208,"ELEMENT_SET_NO":999,"REV_AT_EPOCH":5482,"BSTAR":0,"MEAN_MOTION_DOT":-3.5e-7,"MEAN_MOTION_DDOT":0}]
